{"type": "FeatureCollection", "features": [ {"type": "Feature", "properties": {"norad_id": 66979, "name": "STARLINK-36107", "group": "last-30-days", "lat": 0.5043799166559023, "lon": 100.09701502747697, "alt_km": 353.4675130677206, "timestamp": "2025-12-23T18:59:30.759766+00:00", "meta": {"OBJECT_NAME": "STARLINK-36107", "OBJECT_ID": "2025-288W", "EPOCH": "2025-12-23T06:00:00.999648", "MEAN_MOTION": 15.74028886, "ECCENTRICITY": 0.00011382, "INCLINATION": 43.0005, "RA_OF_ASC_NODE": 102.8299, "ARG_OF_PERICENTER": 274.0197, "MEAN_ANOMALY": 257.914, "EPHEMERIS_TYPE": 0, "CLASSIFICATION_TYPE": "U", "NORAD_CAT_ID": 66979, "ELEMENT_SET_NO": 999, "REV_AT_EPOCH": 352, "BSTAR": -0.014980197, "MEAN_MOTION_DOT": -0.01911953, "MEAN_MOTION_DDOT": 0}, "tle": {"line1": "1 66979U 25288W   25357.25001157 -.01911953  00000+0 -14980-1 0  9998", "line2": "2 66979  43.0005 102.8299 0001138 274.0197 257.9140 15.74028886  3522"}}, "geometry": {"type": "Point", "coordinates": [100.09701502747697, 0.5043799166559023]}}, {"type": "Feature", "properties": {"norad_id": 66980, "name": "STARLINK-36086", "group": "last-30-days", "lat": 1.8110999522517137, "lon": 101.49518152589873, "alt_km": 353.29648973797794, "timestamp": "2025-12-23T18:59:30.759776+00:00", "meta": {"OBJECT_NAME": "STARLINK-36086", "OBJECT_ID": "2025-288X", "EPOCH": "2025-12-23T06:00:00.999648", "MEAN_MOTION": 15.74033117, "ECCENTRICITY": 0.00011162, "INCLINATION": 43.0006, "RA_OF_ASC_NODE": 102.8248, "ARG_OF_PERICENTER": 275.1216, "MEAN_ANOMALY": 258.7236, "EPHEMERIS_TYPE": 0, "CLASSIFICATION_TYPE": "U", "NORAD_CAT_ID": 66980, "ELEMENT_SET_NO": 999, "REV_AT_EPOCH": 352, "BSTAR": -0.014995058, "MEAN_MOTION_DOT": -0.01913877, "MEAN_MOTION_DDOT": 0}, "tle": {"line1": "1 66980U 25288X   25357.25001157 -.01913877  00000+0 -14995-1 0  9993", "line2": "2 66980  43.0006 102.8248 0001116 275.1216 258.7236 15.74033117  3527"}}, "geometry": {"type": "Point", "coordinates": [101.49518152589873, 1.8110999522517137]}}, {"type": "Feature", "properties": {"norad_id": 66981, "name": "STARLINK-36142", "group": "last-30-days", "lat": 3.117822806769207, "lon": 102.89718196483884, "alt_km": 353.29268291595326, "timestamp": "2025-12-23T18:59:30.759785+00:00", "meta": {"OBJECT_NAME": "STARLINK-36142", "OBJECT_ID": "2025-288Y", "EPOCH": "2025-12-23T06:00:00.999648", "MEAN_MOTION": 15.74030931, "ECCENTRICITY": 0.00012286, "INCLINATION": 43.0005, "RA_OF_ASC_NODE": 102.8203, "ARG_OF_PERICENTER": 269.5927, "MEAN_ANOMALY": 266.1763, "EPHEMERIS_TYPE": 0, "CLASSIFICATION_TYPE": "U", "NORAD_CAT_ID": 66981, "ELEMENT_SET_NO": 999, "REV_AT_EPOCH": 352, "BSTAR": -0.015013996, "MEAN_MOTION_DOT": -0.01915904, "MEAN_MOTION_DDOT": 0}, "tle": {"line1": "1 66981U 25288Y   25357.25001157 -.01915904  00000+0 -15014-1 0  9990", "line2": "2 66981  43.0005 102.8203 0001228 269.5927 266.1763 15.74030931  3527"}}, "geometry": {"type": "Point", "coordinates": [102.89718196483884, 3.117822806769207]}}, {"type": "Feature", "properties": {"norad_id": 66982, "name": "STARLINK-36113", "group": "last-30-days", "lat": 4.423785251005212, "lon": 104.30294411630142, "alt_km": 353.27458288845537, "timestamp": "2025-12-23T18:59:30.759794+00:00", "meta": {"OBJECT_NAME": "STARLINK-36113", "OBJECT_ID": "2025-288Z", "EPOCH": "2025-12-23T06:00:00.999648", "MEAN_MOTION": 15.74026234, "ECCENTRICITY": 0.00012695, "INCLINATION": 43.0006, "RA_OF_ASC_NODE": 102.8149, "ARG_OF_PERICENTER": 263.2912, "MEAN_ANOMALY": 274.3919, "EPHEMERIS_TYPE": 0, "CLASSIFICATION_TYPE": "U", "NORAD_CAT_ID": 66982, "ELEMENT_SET_NO": 999, "REV_AT_EPOCH": 352, "BSTAR": -0.01491408, "MEAN_MOTION_DOT": -0.01904587, "MEAN_MOTION_DDOT": 0}, "tle": {"line1": "1 66982U 25288Z   25357.25001157 -.01904587  00000+0 -14914-1 0  9994", "line2": "2 66982  43.0006 102.8149 0001269 263.2912 274.3919 15.74026234  3523"}}, "geometry": {"type": "Point", "coordinates": [104.30294411630142, 4.423785251005212]}}, {"type": "Feature", "properties": {"norad_id": 66983, "name": "STARLINK-36145", "group": "last-30-days", "lat": 7.01906099289303, "lon": 107.12388079316041, "alt_km": 352.8582069122531, "timestamp": "2025-12-23T18:59:30.759805+00:00", "meta": {"OBJECT_NAME": "STARLINK-36145", "OBJECT_ID": "2025-288AA", "EPOCH": "2025-12-23T06:00:00.999648", "MEAN_MOTION": 15.74028896, "ECCENTRICITY": 0.00010113, "INCLINATION": 43.0007, "RA_OF_ASC_NODE": 102.8056, "ARG_OF_PERICENTER": 268.1532, "MEAN_ANOMALY": 273.3692, "EPHEMERIS_TYPE": 0, "CLASSIFICATION_TYPE": "U", "NORAD_CAT_ID": 66983, "ELEMENT_SET_NO": 999, "REV_AT_EPOCH": 352, "BSTAR": -0.015004733, "MEAN_MOTION_DOT": -0.01914545, "MEAN_MOTION_DDOT": 0}, "tle": {"line1": "1 66983U 25288AA  25357.25001157 -.01914545  00000+0 -15005-1 0  9992", "line2": "2 66983  43.0007 102.8056 0001011 268.1532 273.3692 15.74028896  3522"}}, "geometry": {"type": "Point", "coordinates": [107.12388079316041, 7.01906099289303]}}, {"type": "Feature", "properties": {"norad_id": 66984, "name": "STARLINK-35591", "group": "last-30-days", "lat": 5.7223286729982075, "lon": 105.70867790988741, "alt_km": 353.12523752220204, "timestamp": "2025-12-23T18:59:30.759814+00:00", "meta": {"OBJECT_NAME": "STARLINK-35591", "OBJECT_ID": "2025-288AB", "EPOCH": "2025-12-23T06:00:00.999648", "MEAN_MOTION": 15.74033837, "ECCENTRICITY": 9.782e-05, "INCLINATION": 43.0004, "RA_OF_ASC_NODE": 102.8096, "ARG_OF_PERICENTER": 263.2426, "MEAN_ANOMALY": 276.3556, "EPHEMERIS_TYPE": 0, "CLASSIFICATION_TYPE": "U", "NORAD_CAT_ID": 66984, "ELEMENT_SET_NO": 999, "REV_AT_EPOCH": 352, "BSTAR": -0.015001775, "MEAN_MOTION_DOT": -0.01914549, "MEAN_MOTION_DDOT": 0}, "tle": {"line1": "1 66984U 25288AB  25357.25001157 -.01914549  00000+0 -15002-1 0  9994", "line2": "2 66984  43.0004 102.8096 0000978 263.2426 276.3556 15.74033837  3526"}}, "geometry": {"type": "Point", "coordinates": [105.70867790988741, 5.7223286729982075]}}, {"type": "Feature", "properties": {"norad_id": 66985, "name": "STARLINK-36103", "group": "last-30-days", "lat": 8.314658383743408, "lon": 108.5494695246716, "alt_km": 352.64245882035084, "timestamp": "2025-12-23T18:59:30.759822+00:00", "meta": {"OBJECT_NAME": "STARLINK-36103", "OBJECT_ID": "2025-288AC", "EPOCH": "2025-12-23T06:00:00.999648", "MEAN_MOTION": 15.7403011, "ECCENTRICITY": 0.00012043, "INCLINATION": 43.0005, "RA_OF_ASC_NODE": 102.8005, "ARG_OF_PERICENTER": 271.364, "MEAN_ANOMALY": 272.0722, "EPHEMERIS_TYPE": 0, "CLASSIFICATION_TYPE": "U", "NORAD_CAT_ID": 66985, "ELEMENT_SET_NO": 999, "REV_AT_EPOCH": 352, "BSTAR": -0.014995058, "MEAN_MOTION_DOT": -0.01913737, "MEAN_MOTION_DDOT": 0}, "tle": {"line1": "1 66985U 25288AC  25357.25001157 -.01913737  00000+0 -14995-1 0  9993", "line2": "2 66985  43.0005 102.8005 0001204 271.3640 272.0722 15.74030110  3528"}}, "geometry": {"type": "Point", "coordinates": [108.5494695246716, 8.314658383743408]}}, {"type": "Feature", "properties": {"norad_id": 66986, "name": "STARLINK-36135", "group": "last-30-days", "lat": 9.604343779794295, "lon": 109.98279794558134, "alt_km": 352.6303913033453, "timestamp": "2025-12-23T18:59:30.759831+00:00", "meta": {"OBJECT_NAME": "STARLINK-36135", "OBJECT_ID": "2025-288AD", "EPOCH": "2025-12-23T06:00:00.999648", "MEAN_MOTION": 15.74029165, "ECCENTRICITY": 0.00012667, "INCLINATION": 43.0006, "RA_OF_ASC_NODE": 102.7946, "ARG_OF_PERICENTER": 265.5753, "MEAN_ANOMALY": 279.7782, "EPHEMERIS_TYPE": 0, "CLASSIFICATION_TYPE": "U", "NORAD_CAT_ID": 66986, "ELEMENT_SET_NO": 999, "REV_AT_EPOCH": 352, "BSTAR": -0.014975216, "MEAN_MOTION_DOT": -0.01911538, "MEAN_MOTION_DDOT": 0}, "tle": {"line1": "1 66986U 25288AD  25357.25001157 -.01911538  00000+0 -14975-1 0  9999", "line2": "2 66986  43.0006 102.7946 0001266 265.5753 279.7782 15.74029165  3529"}}, "geometry": {"type": "Point", "coordinates": [109.98279794558134, 9.604343779794295]}}, {"type": "Feature", "properties": {"norad_id": 66987, "name": "STARLINK-36147", "group": "last-30-days", "lat": 10.885421855392185, "lon": 111.42629416584515, "alt_km": 352.33786712500114, "timestamp": "2025-12-23T18:59:30.759841+00:00", "meta": {"OBJECT_NAME": "STARLINK-36147", "OBJECT_ID": "2025-288AE", "EPOCH": "2025-12-23T06:00:00.999648", "MEAN_MOTION": 15.74009548, "ECCENTRICITY": 0.00010247, "INCLINATION": 43.0006, "RA_OF_ASC_NODE": 102.7908, "ARG_OF_PERICENTER": 268.7246, "MEAN_ANOMALY": 278.5603, "EPHEMERIS_TYPE": 0, "CLASSIFICATION_TYPE": "U", "NORAD_CAT_ID": 66987, "ELEMENT_SET_NO": 999, "REV_AT_EPOCH": 352, "BSTAR": -0.014821265, "MEAN_MOTION_DOT": -0.01892926, "MEAN_MOTION_DDOT": 0}, "tle": {"line1": "1 66987U 25288AE  25357.25001157 -.01892926  00000+0 -14821-1 0  9999", "line2": "2 66987  43.0006 102.7908 0001024 268.7246 278.5603 15.74009548  3524"}}, "geometry": {"type": "Point", "coordinates": [111.42629416584515, 10.885421855392185]}}, {"type": "Feature", "properties": {"norad_id": 66988, "name": "YAOGAN-47", "group": "last-30-days", "lat": 75.86526845278492, "lon": 31.269743006995135, "alt_km": 488.3903600690128, "timestamp": "2025-12-23T18:59:30.759850+00:00", "meta": {"OBJECT_NAME": "YAOGAN-47", "OBJECT_ID": "2025-289A", "EPOCH": "2025-12-20T02:21:43.539840", "MEAN_MOTION": 15.23243112, "ECCENTRICITY": 6.467e-05, "INCLINATION": 97.5265, "RA_OF_ASC_NODE": 59.2376, "ARG_OF_PERICENTER": 91.4531, "MEAN_ANOMALY": 268.678, "EPHEMERIS_TYPE": 0, "CLASSIFICATION_TYPE": "U", "NORAD_CAT_ID": 66988, "ELEMENT_SET_NO": 999, "REV_AT_EPOCH": 166, "BSTAR": 0.00010945697, "MEAN_MOTION_DOT": 2.52e-05, "MEAN_MOTION_DDOT": 0}, "tle": {"line1": "1 66988U 25289A   25354.09842060  .00002520  00000+0  10946-3 0  9992", "line2": "2 66988  97.5265  59.2376 0000646  91.4531 268.6780 15.23243112  1668"}}, "geometry": {"type": "Point", "coordinates": [31.269743006995135, 75.86526845278492]}}]}